[Satellite]
VERSION=1.1
NAME=S-Net C
NICKNAME=S-Net C
TLE1=1 43189U 18014K   22335.20043903  .00001934  00000-0  16598-3 0  9994
TLE2=2 43189  97.6454 237.6127 0011694  97.8844 262.3707 14.98594603262434
STATUS=0
